STARLINK-1007           
1 44713U 19074A   24015.57201408  .00006666  00000+0  46606-3 0  9997
2 44713  53.0538 106.6558 0001410 125.6892 234.4229 15.06395766230565
STARLINK-1008           
1 44714U 19074B   24016.47970502  .00021327  00000+0  14454-2 0  9992
2 44714  53.0533 102.5879 0001530  82.0896 278.0267 15.06424256230872
STARLINK-1009           
1 44715U 19074C   24016.46864274  .00021447  00000+0  14533-2 0  9991
2 44715  53.0527 102.6375 0001354  67.7383 292.3749 15.06426080230863
STARLINK-1010           
1 44716U 19074D   24016.48707601  .00004459  00000+0  31794-3 0  9997
2 44716  53.0561 102.5524 0002290  51.2236 308.8957 15.06412074230853
STARLINK-1011           
1 44717U 19074E   24015.62272061  .00002097  00000+0  15966-3 0  9999
2 44717  53.0530 126.4324 0001174  98.8319 261.2803 15.06394598230292
STARLINK-1012           
1 44718U 19074F   24016.52394212  .00001537  00000+0  12208-3 0  9997
2 44718  53.0528 102.3875 0001434  85.7996 274.3157 15.06399672230878
STARLINK-1013           
1 44719U 19074G   24016.46495876  .00019498  00000+0  13234-2 0  9993
2 44719  53.0525 102.6513 0001184  67.9050 292.2065 15.06423191230863
STARLINK-1014           
1 44720U 19074H   24016.48244013  .00017198  00000+0  11700-2 0  9993
2 44720  53.0524 102.5638 0000734  67.9948 292.1119 15.06420116230871
STARLINK-1015           
1 44721U 19074J   24016.47233074  .00012258  00000+0  84000-3 0  9994
2 44721  53.0537 102.6191 0001449  96.2345 263.8809 15.06416021230861
STARLINK-1017           
1 44723U 19074L   24015.62825151  .00005155  00000+0  36479-3 0  9990
2 44723  53.0537 106.4110 0001224  87.7383 272.3747 15.06392302230573
STARLINK-1019           
1 44724U 19074M   24016.45390273 -.00000531  00000+0 -16779-4 0  9992
2 44724  53.0534 102.6992 0001323  96.4877 263.6262 15.06382553230866
STARLINK-1020           
1 44725U 19074N   24016.52576555  .00002082  00000+0  15855-3 0  9994
2 44725  53.0535 122.3789 0001295  80.1232 279.9903 15.06414651230591
STARLINK-1021           
1 44726U 19074P   24016.51656040  .00013758  00000+0  93965-3 0  9992
2 44726  53.0528 102.4218 0001606  66.9443 293.1715 15.06442521230879
STARLINK-1024           
1 44729U 19074S   24016.11503648  .00090691  00000+0  83045-3 0  9995
2 44729  53.0135 347.7725 0006414 113.3597 246.8093 15.67037951232399
STARLINK-1027           
1 44732U 19074V   24016.51472007  .00007215  00000+0  50260-3 0  9990
2 44732  53.0547 122.4344 0001400  92.6223 267.4926 15.06411143230596
STARLINK-1028           
1 44733U 19074W   24016.51287169  .00020609  00000+0  13972-2 0  9994
2 44733  53.0542 102.4310 0001338  85.0201 275.0940 15.06432031230876
STARLINK-1029           
1 44734U 19074X   24016.39493459  .00005490  00000+0  38707-3 0  9997
2 44734  53.0542  22.9631 0001566  96.5875 263.5292 15.06410676231959
STARLINK-1030           
1 44735U 19074Y   24016.52208765  .00018870  00000+0  12816-2 0  9995
2 44735  53.0533 122.3970 0001302  95.9863 264.1274 15.06421088230594
STARLINK-1031           
1 44736U 19074Z   24016.47048498  .00001208  00000+0  99991-4 0  9993
2 44736  53.0542 122.6308 0001338  74.3881 285.7255 15.06406410230593
STARLINK-1032           
1 44737U 19074AA  24016.48156651 -.00000750  00000+0 -31487-4 0  9995
2 44737  53.0545 122.5794 0001300  63.9253 296.1870 15.06396031230597
STARLINK-1035           
1 44740U 19074AD  24016.47785988  .00011763  00000+0  80703-3 0  9997
2 44740  53.0535 122.5986 0001088  95.9835 264.1278 15.06411347230592
STARLINK-1036           
1 44741U 19074AE  24016.48891237  .00004470  00000+0  31871-3 0  9993
2 44741  53.0539 122.5492 0001281  64.2643 295.8478 15.06411657230597
STARLINK-1038           
1 44743U 19074AG  24015.67617279  .00002149  00000+0  16312-3 0  9991
2 44743  53.0540 146.1902 0001024  77.8990 282.2113 15.06394959230196
STARLINK-1039           
1 44744U 19074AH  24016.48338591  .00002586  00000+0  19241-3 0  9998
2 44744  53.0544 142.5656 0001146  85.7395 274.3725 15.06410629230317
STARLINK-1041           
1 44746U 19074AK  24015.67250631 -.00000980  00000+0 -46917-4 0  9997
2 44746  53.0546 146.2075 0001356  74.0798 286.0340 15.06377559230023
STARLINK-1042           
1 44747U 19074AL  24015.63180939  .00014740  00000+0  99557-3 0  9991
2 44747  53.0530 146.3509 0001015  83.1273 276.9831 15.06801807230022
STARLINK-1043           
1 44748U 19074AM  24016.52761891  .00001201  00000+0  99496-4 0  9994
2 44748  53.0544 142.3698 0001288  89.8199 270.2938 15.06408379230320
STARLINK-1046           
1 44751U 19074AQ  24016.40966446  .00000980  00000+0  84679-4 0  9998
2 44751  53.0539 142.8973 0001206  78.8791 281.2333 15.06410496230307
STARLINK-1047           
1 44752U 19074AR  24016.49628566  .00006523  00000+0  45621-3 0  9998
2 44752  53.0531 122.5105 0001230  80.3324 279.7804 15.06415672230596
STARLINK-1048           
1 44753U 19074AS  24015.63931537  .00003937  00000+0  28304-3 0  9994
2 44753  53.0538 106.3561 0001535  78.1603 281.9558 15.06399393230573
STARLINK-1052           
1 44757U 19074AW  24015.56599441  .00051952  00000+0  28592-2 0  9992
2 44757  53.0543 123.0926 0002388  93.2271 266.8994 15.13562987230339
STARLINK-1053           
1 44758U 19074AX  24015.66145784 -.00006758  00000+0 -43547-3 0  9995
2 44758  53.0542 146.3460 0001267  72.6121 287.5007 15.06380983230027
STARLINK-1054           
1 44759U 19074AY  24015.64299908 -.00002871  00000+0 -17389-3 0  9999
2 44759  53.0537 146.3333 0001129 102.8859 257.2256 15.06403841227667
STARLINK-1055           
1 44760U 19074AZ  24015.59108381  .00013765  00000+0  58648-3 0  9994
2 44760  53.0182 118.7990 0003796 124.6135 235.5219 15.23245734230417
STARLINK-1056           
1 44761U 19074BA  24016.50181002  .00000772  00000+0  70666-4 0  9997
2 44761  53.0542 142.4862 0001058  95.0291 265.0818 15.06412663230324
STARLINK-1057           
1 44762U 19074BB  24016.50365750  .00006132  00000+0  43004-3 0  9993
2 44762  53.0528 122.4799 0001545  58.3395 301.7745 15.06415414230597
STARLINK-1058           
1 44763U 19074BC  24015.62830080  .00002014  00000+0  15409-3 0  9992
2 44763  53.0554 146.7512 0001267 102.1103 258.0028 15.06396349230015
STARLINK-1059           
1 44764U 19074BD  24015.49391475  .00015449  00000+0  57675-3 0  9995
2 44764  53.0804  82.8646 0006208  72.1534 288.0141 15.27575114231085
STARLINK-1060           
1 44765U 19074BE  24016.51839763  .00005780  00000+0  40641-3 0  9999
2 44765  53.0533 122.4077 0001233  81.3439 278.7689 15.06416569230596
STARLINK-1061           
1 44766U 19074BF  24015.58772465  .00000644  00000+0  62171-4 0  9998
2 44766  53.0526 146.5864 0001330 109.7851 250.3281 15.06388770230014
STARLINK-1062           
1 44767U 19074BG  24015.51305389  .00000082  00000+0  24414-4 0  9993
2 44767  53.0549 146.9026 0001281 112.9229 247.1895 15.06410115230007
STARLINK-1063           
1 44768U 19074BH  24016.33226436  .00000792  00000+0  72052-4 0  9999
2 44768  53.0541 143.2458 0001274 106.6630 253.4499 15.06404328230297
STARLINK-1067           
1 44771U 19074BL  24016.52024017  .00001525  00000+0  12122-3 0  9991
2 44771  53.0533 142.4035 0001298 100.6413 259.4722 15.06412429230323
STARLINK-1068           
1 44772U 19074BM  24015.58218350  .00002646  00000+0  19648-3 0  9997
2 44772  53.0534 126.6150 0001369  96.2694 263.8451 15.06392370230282
STARLINK-1073           
1 44914U 20001A   24016.12956334  .00000355  00000+0  42727-4 0  9999
2 44914  53.0528 264.1587 0001305  88.9161 271.1977 15.06391119221748
STARLINK-1084           
1 44915U 20001B   24016.09269557  .00004394  00000+0  31363-3 0  9990
2 44915  53.0528 264.3225 0001328  96.0866 264.0275 15.06403560221743
STARLINK-1098           
1 44917U 20001D   24016.09638443  .00006445  00000+0  45120-3 0  9991
2 44917  53.0535 264.3097 0001221  78.4784 281.6342 15.06397035221744
STARLINK-1099           
1 44918U 20001E   24015.86023346  .00038872  00000+0  67624-3 0  9998
2 44918  53.0543 245.1151 0001777  84.4876 275.6335 15.50428859222730
STARLINK-1102           
1 44920U 20001G   24015.84704491  .00014190  00000+0  54691-3 0  9993
2 44920  53.0523 229.7098 0001918 165.9410 194.1641 15.26596153222219
STARLINK-1103           
1 44921U 20001H   24016.07332165  .00002853  00000+0  21038-3 0  9997
2 44921  53.0545 264.3617 0001437 103.4439 256.6711 15.06396817221719
STARLINK-1104           
1 44922U 20001J   24016.11112758  .00001285  00000+0  10515-3 0  9993
2 44922  53.0528 264.2424 0001347  93.7091 266.4052 15.06403019221744
STARLINK-1106           
1 44923U 20001K   24016.06122023  .00010407  00000+0  45882-3 0  9995
2 44923  53.0369 239.9633 0002282  93.6950 266.4307 15.22356297222085
STARLINK-1111           
1 44924U 20001L   24016.12587854 -.00000876  00000+0 -39930-4 0  9999
2 44924  53.0526 264.1977 0001221  92.8874 267.2254 15.06386114221745
STARLINK-1112           
1 44925U 20001M   24016.07427295  .00000579  00000+0  57769-4 0  9994
2 44925  53.0532 264.4067 0001057  82.3864 277.7245 15.06392905221736
STARLINK-1113           
1 44926U 20001N   24016.07060739 -.00000191  00000+0  60624-5 0  9997
2 44926  53.0534 264.5096 0001230  99.0940 261.0188 15.06388899222421
STARLINK-1114           
1 44927U 20001P   24016.08532672  .00004340  00000+0  31010-3 0  9993
2 44927  53.0525 264.3595 0001278  98.4458 261.6676 15.06394374221740
STARLINK-1119           
1 44928U 20001Q   24015.85729264  .00001336  00000+0  18647-4 0  9997
2 44928  53.0517 244.6098 0001179 119.4100 240.7032 15.65309900222009
STARLINK-1121           
1 44929U 20001R   24015.84262129  .00110879  00000+0  77250-3 0  9996
2 44929  53.0502 230.1761 0001404 200.7375 159.3586 15.73542794222198
STARLINK-1123           
1 44930U 20001S   24016.10007612 -.00001361  00000+0 -72522-4 0  9997
2 44930  53.0545 264.2858 0001641 112.0733 248.0430 15.06390302221744
STARLINK-1128           
